[{"OBJECT_NAME":"STARLINK-5871","OBJECT_ID":"2023-037F","EPOCH":"2026-03-09T22:35:58.157376","MEAN_MOTION":14.98331696,"ECCENTRICITY":0.00028939,"INCLINATION":69.9994,"RA_OF_ASC_NODE":303.8717,"ARG_OF_PERICENTER":270.6396,"MEAN_ANOMALY":89.4432,"EPHEMERIS_TYPE":0,"CLASSIFICATION_TYPE":"U","NORAD_CAT_ID":55919,"ELEMENT_SET_NO":999,"REV_AT_EPOCH":16352,"BSTAR":-9.299257e-6,"MEAN_MOTION_DOT":-2.04e-6,"MEAN_MOTION_DDOT":0},{"OBJECT_NAME":"GEESAT-2 04","OBJECT_ID":"2024-023D","EPOCH":"2026-03-09T22:58:49.443744","MEAN_MOTION":14.96681304,"ECCENTRICITY":0.00064656,"INCLINATION":49.992,"RA_OF_ASC_NODE":72.838,"ARG_OF_PERICENTER":6.7244,"MEAN_ANOMALY":353.3785,"EPHEMERIS_TYPE":0,"CLASSIFICATION_TYPE":"U","NORAD_CAT_ID":58908,"ELEMENT_SET_NO":999,"REV_AT_EPOCH":11446,"BSTAR":0.0002767609,"MEAN_MOTION_DOT":2.943e-5,"MEAN_MOTION_DDOT":0}]
